NORAD_CAT_ID,TLE_LINE0,TLE_LINE1,TLE_LINE2,CREATION_DATE,OBJECT_NAME,OBJECT_ID,EPOCH,MEAN_MOTION,ECCENTRICITY,INCLINATION,RA_OF_ASC_NODE,ARG_OF_PERICENTER,MEAN_ANOMALY,REV_AT_EPOCH,BSTAR,MEAN_MOTION_DOT,MEAN_MOTION_DDOT,SEMIMAJOR_AXIS,PERIOD,APOAPSIS,PERIAPSIS,OBJECT_TYPE,COUNTRY_CODE,LAUNCH_DATE,SITE,DECAY_DATE,LAUNCH_YEAR,LAUNCH_SEQ,EPOCH_FINAL,ORBIT_CLASS,EVENT,DURATION,RCS_SIZE
797,0 COSMOS 30,1 00797U 64023  A 64144.78727598  .00063052 +00000-0 +00000-0 0  9996,2 00797 064.8838 037.9198 0121648 036.4115 324.4098 15.96479729000864,15/08/2004 23:35,COSMOS 30,1964-023A,23/05/1964 18:53,15.96479729,0.0121648,64.8838,37.9198,36.4115,324.4098,86,0.0,0.00063052,0.0,6662.335,90.198,365.246,203.154,PAYLOAD,CIS,31/03/1964,PKMTR,26/05/1964,1964,23,24/05/1964 13:47,LEO,1,56,MEDIUM
798,0 SL-3 R/B,1 00798U 64023  B 64158.58352038  .03129074 +00000-0 +00000-0 0  9993,2 00798 064.8313 346.4669 0012357 349.2009 010.7726 16.33329472003099,15/08/2004 23:35,SL-3 R/B,1964-023B,06/06/1964 14:00,16.33329472,0.0012357,64.8313,346.4669,349.2009,10.7726,309,0.0,0.03129074,0.0,6561.748,88.163,191.721,175.505,ROCKET BODY,CIS,02/04/1964,PKMTR,07/06/1964,1964,23,07/06/1964 04:00,LEO,1,66,LARGE
799,0 OPS 3592,1 00799U 64024  A 64143.20382498  .07498104 +00000-0 +00000-0 0  9998,2 00799 101.1099 224.8144 0061476 091.4899 269.2150 16.25877945000398,15/08/2004 23:35,OPS 3592,1964-024A,22/05/1964 04:53,16.25877945,0.0061476,101.1099,224.8144,91.4899,269.215,39,0.0,0.07498104,0.0,6581.781,88.567,244.109,163.184,PAYLOAD,US,04/04/1964,AFWTR,22/05/1964,1964,24,22/05/1964 09:47,LEO,1,48,MEDIUM
800,0 APOLLO MODEL 1,1 00800U 64025  A 64151.65727230  .02539509 +00000-0 +00000-0 0  9997,2 00800 031.7652 289.7080 0010287 132.0863 228.0005 16.33700975000322,15/08/2004 23:35,APOLLO MODEL 1,1964-025A,30/05/1964 15:46,16.33700975,0.0010287,31.7652,289.708,132.0863,228.0005,32,0.0,0.02539509,0.0,6560.753,88.143,189.367,175.869,PAYLOAD,US,06/04/1964,AFETR,01/06/1964,1964,25,31/05/1964 07:32,LEO,1,56,MEDIUM
801,0 OPS 4412 (TRANSIT 9),1 00801U 64026A   25193.46751276  .00000362  00000-0  17429-3 0  9992,2 00801  90.4534 170.4818 0049501  44.0239 316.4874 14.16694503138044,12/07/2025 17:51,OPS 4412 (TRANSIT 9),1964-026A,12/07/2025 11:13,14.16694503,0.0049501,90.4534,170.4818,44.0239,316.4874,13804,0.00017429,3.62e-06,0.0,7214.69,101.645,872.269,800.842,PAYLOAD,US,04/06/1964,AFWTR,,1964,26,12/07/2025 22:26,LEO,0,22319,MEDIUM
802,0 OPS 3483,1 00802U 64027  A 64170.07143708  .09463168 +00000-0 +00000-0 0  9994,2 00802 079.9156 285.9111 0096066 064.5574 296.4335 16.28673162002101,15/08/2004 23:35,OPS 3483,1964-027A,18/06/1964 01:42,16.28673162,0.0096066,79.9156,285.9111,64.5574,296.4335,210,0.0,0.09463168,0.0,6574.249,88.415,259.27,132.957,PAYLOAD,US,08/04/1964,AFWTR,18/06/1964,1964,27,18/06/1964 03:25,LEO,1,71,MEDIUM
803,0 COSMOS 31,1 00803U 64028  A 64292.25119709  .02052390 +00000-0 +00000-0 0  9999,2 00803 048.9477 269.4860 0029903 042.5583 317.6720 16.29372552021299,15/08/2004 23:35,COSMOS 31,1964-028A,18/10/1964 06:01,16.29372552,0.0029903,48.9477,269.486,42.5583,317.672,2129,0.0,0.0205239,0.0,6572.367,88.377,213.886,174.579,PAYLOAD,CIS,10/04/1964,PKMTR,20/10/1964,1964,28,18/10/1964 12:03,LEO,1,193,MEDIUM
804,0 SL-7 R/B,1 00804U 64028  B 64229.11140368  .07003632 +00000-0 +00000-0 0  9990,2 00804 048.9458 258.5445 0027266 121.2037 239.0620 16.36286575011276,15/08/2004 23:35,SL-7 R/B,1964-028B,16/08/1964 02:40,16.36286575,0.0027266,48.9458,258.5445,121.2037,239.062,1127,0.0,0.07003632,0.0,6553.84,88.004,193.575,157.835,ROCKET BODY,CIS,12/04/1964,PKMTR,16/08/1964,1964,28,16/08/1964 05:20,LEO,1,126,LARGE
805,0 SCOUT X-4 DEB,1 00805U 64026B   25193.39833402  .00001250  00000-0  43661-3 0  9994,2 00805  89.8666 334.3981 0027973 237.1863 122.6641 14.34597672141294,12/07/2025 17:51,SCOUT X-4 DEB,1964-026B,12/07/2025 09:33,14.34597672,0.0027973,89.8666,334.3981,237.1863,122.6641,14129,0.00043661,1.25e-05,0.0,7154.541,100.377,796.419,756.392,DEBRIS,US,04/06/1964,AFWTR,,1964,26,12/07/2025 19:07,LEO,0,22319,SMALL
806,0 SCOUT X-4 DEB,1   806U 64026C   02323.30519905 +.11311062 -74792-6 +37175-2 0  9990,2   806 090.7476 255.3766 0023586 160.4906 203.0676 16.25219901011803,28/05/2004 19:18,SCOUT X-4 DEB,1964-026C,19/11/2002 07:19,16.25219901,0.0023586,90.7476,255.3766,160.4906,203.0676,1180,0.0037175,0.11311062,-7.48e-07,6583.558,88.603,220.951,189.895,DEBRIS,US,04/06/1964,AFWTR,19/11/2002,1964,26,19/11/2002 14:38,LEO,1,14047,SMALL
807,0 COSMOS 32,1 00807U 64029  A 64169.42959138  .00077649 +00000-0 +00000-0 0  9996,2 00807 051.2376 035.0842 0089670 054.4278 306.4342 16.04122807001120,15/08/2004 23:35,COSMOS 32,1964-029A,17/06/1964 10:18,16.04122807,0.008967,51.2376,35.0842,54.4278,306.4342,112,0.0,0.00077649,0.0,6641.156,89.768,322.572,203.47,PAYLOAD,CIS,14/04/1964,PKMTR,18/06/1964,1964,29,17/06/1964 20:37,LEO,1,65,MEDIUM
808,0 SL-3 R/B,1 00808U 64029  B 64195.75959967  .02550401 +00000-0 +00000-0 0  9996,2 00808 051.2333 250.8194 0000000 197.7624 162.2363 16.34893282005374,15/08/2004 23:35,SL-3 R/B,1964-029B,13/07/1964 18:13,16.34893282,0.0,51.2333,250.8194,197.7624,162.2363,537,0.0,0.02550401,0.0,6557.563,88.079,179.428,179.428,ROCKET BODY,CIS,16/04/1964,PKMTR,14/07/1964,1964,29,14/07/1964 12:27,LEO,1,89,LARGE
809,0 SCOUT X-4 R/B,1 00809U 64026D   25193.43315954  .00000124  00000-0  63781-4 0  9995,2 00809  90.4511 160.7890 0042319  71.4309 289.1466 14.10569650130246,12/07/2025 17:51,SCOUT X-4 R/B,1964-026D,12/07/2025 10:23,14.1056965,0.0042319,90.4511,160.789,71.4309,289.1466,13024,6.38e-05,1.24e-06,0.0,7235.56,102.086,888.045,826.805,ROCKET BODY,US,04/06/1964,AFWTR,,1964,26,12/07/2025 20:47,LEO,0,22319,LARGE
810,0 SL-3 DEB,1 00810U 64029  C 64163.50543306  .09585897 +00000-0 +00000-0 0  9997,2 00810 051.2192 067.1332 0047482 034.2928 326.0683 16.17272688000170,15/08/2004 23:35,SL-3 DEB,1964-029C,11/06/1964 12:07,16.17272688,0.0047482,51.2192,67.1332,34.2928,326.0683,17,0.0,0.09585897,0.0,6605.108,89.038,258.335,195.611,DEBRIS,CIS,18/04/1964,PKMTR,12/06/1964,1964,29,12/06/1964 00:15,LEO,1,55,SMALL
811,0 OPS 3236 (STARFLASH 1A),1 00811U 64030  A 65152.74327127  .02967790 +28050-1 +00000-0 0  9991,2 00811 114.9680 348.6399 0009070 284.2436 075.8076 16.34106834055883,15/08/2004 23:35,OPS 3236 (STARFLASH 1A),1964-030A,01/06/1965 17:50,16.34106834,0.000907,114.968,348.6399,284.2436,75.8076,5588,0.0,0.0296779,0.02805,6559.667,88.121,187.482,175.582,PAYLOAD,US,20/04/1964,AFWTR,02/06/1965,1964,30,02/06/1965 11:40,LEO,1,408,MEDIUM
812,0 OPS 4467 A,1 00812U 64031A   25193.58568432  .00000023  00000-0  33121-4 0  9995,2 00812  99.7786 305.0716 0004988 326.8748  33.2114 14.24477256167941,12/07/2025 17:51,OPS 4467 A,1964-031A,12/07/2025 14:03,14.24477256,0.0004988,99.7786,305.0716,326.8748,33.2114,16794,3.31e-05,2.3e-07,0.0,7188.388,101.09,813.838,806.667,PAYLOAD,US,18/06/1964,AFWTR,,1964,31,13/07/2025 04:06,LEO,0,22305,MEDIUM
813,0 OPS 4467 B,1 00813U 64031B   25193.55939339  .00000025  00000-0  34497-4 0  9990,2 00813  99.7872 302.7465 0005924  53.7381 306.4341 14.23603513166608,12/07/2025 17:51,OPS 4467 B,1964-031B,12/07/2025 13:25,14.23603513,0.0005924,99.7872,302.7465,53.7381,306.4341,16660,3.45e-05,2.5e-07,0.0,7191.329,101.152,817.454,808.934,PAYLOAD,US,18/06/1964,AFWTR,,1964,31,13/07/2025 02:51,LEO,0,22305,MEDIUM
814,0 OPS 3754,1 00814U 64032  A 64197.46387004  .04334490 +00000-0 +00000-0 0  9994,2 00814 084.9877 302.5466 0054057 043.6269 316.8538 16.30820672004075,15/08/2004 23:35,OPS 3754,1964-032A,15/07/1964 11:07,16.30820672,0.0054057,84.9877,302.5466,43.6269,316.8538,407,0.0,0.0433449,0.0,6568.476,88.299,225.848,154.834,PAYLOAD,US,24/04/1964,AFWTR,16/07/1964,1964,32,15/07/1964 22:15,LEO,1,83,MEDIUM
815,0 THOR AGENA D R/B,1 00815U 64031C   25193.46501901  .00000087  00000-0  56475-4 0  9990,2 00815  99.8073  97.0693 0011603 172.4714 187.6639 14.28312069172504,12/07/2025 17:51,THOR AGENA D R/B,1964-031C,12/07/2025 11:09,14.28312069,0.0011603,99.8073,97.0693,172.4714,187.6639,17250,5.65e-05,8.7e-07,0.0,7175.515,100.818,805.706,789.055,ROCKET BODY,US,18/06/1964,AFWTR,,1964,31,12/07/2025 22:19,LEO,0,22305,LARGE
816,0 COSMOS 33,1 00816U 64033  A 64184.09641669  .00200633 +00000-0 +00000-0 0  9999,2 00816 065.0300 065.4696 0044064 025.6095 334.6080 16.13069808001403,15/08/2004 23:35,COSMOS 33,1964-033A,02/07/1964 02:18,16.13069808,0.0044064,65.03,65.4696,25.6095,334.608,140,0.0,0.00200633,0.0,6616.576,89.27,267.596,209.286,PAYLOAD,CIS,28/04/1964,PKMTR,02/07/1964,1964,33,02/07/1964 04:37,LEO,1,65,MEDIUM
817,0 SL-3 R/B,1 00817U 64033  B 64192.59038398  .09757828 +00000-0 +00000-0 0  9995,2 00817 064.9321 033.4251 0000000 082.2526 277.7484 16.45956378002786,15/08/2004 23:35,SL-3 R/B,1964-033B,10/07/1964 14:10,16.45956378,0.0,64.9321,33.4251,82.2526,277.7484,278,0.0,0.09757828,0.0,6528.146,87.487,150.011,150.011,ROCKET BODY,CIS,30/04/1964,PKMTR,10/07/1964,1964,33,11/07/1964 04:20,LEO,1,71,LARGE
818,0 SL-3 DEB,1 00818U 64033  C 64175.78196310  .00995050 +00000-0 +00000-0 0  9999,2 00818 065.1026 096.1897 0058840 033.4951 326.8758 16.18314464000062,15/08/2004 23:35,SL-3 DEB,1964-033C,23/06/1964 18:46,16.18314464,0.005884,65.1026,96.1897,33.4951,326.8758,6,0.0,0.0099505,0.0,6602.273,88.981,262.986,185.29,DEBRIS,CIS,02/05/1964,PKMTR,24/06/1964,1964,33,24/06/1964 13:32,LEO,1,53,SMALL
819,0 SL-3 DEB,1 00819U 64033  D 64176.46301792  .07743744 +00000-0 +00000-0 0  9996,2 00819 064.9703 093.7945 0039988 021.9385 338.2322 16.22356459000175,15/08/2004 23:35,SL-3 DEB,1964-033D,24/06/1964 11:06,16.22356459,0.0039988,64.9703,93.7945,21.9385,338.2322,17,0.0,0.07743744,0.0,6591.302,88.759,239.525,186.81,DEBRIS,CIS,04/05/1964,PKMTR,24/06/1964,1964,33,24/06/1964 22:13,LEO,1,51,SMALL
